GPS BIIA-23 (PRN 18)    
1 22877U 93068A   18182.47508542 -.00000047  00000-0  00000+0 0  9998
2 22877  54.4348  82.9179 0145107  75.3215 200.4589  2.00566942180835
GPS BIIR-2  (PRN 13)    
1 24876U 97035A   18181.98703166  .00000050  00000-0  00000+0 0  9994
2 24876  55.4876 212.2258 0030733  88.5084 271.9088  2.00564921153424
GPS BIIR-3  (PRN 11)    
1 25933U 99055A   18182.54269765 -.00000069  00000-0  00000+0 0  9999
2 25933  51.8971  61.0644 0167391 101.9971 225.2750  2.00566993137252
GPS BIIR-4  (PRN 20)    
1 26360U 00025A   18182.18931139  .00000015  00000-0  00000+0 0  9994
2 26360  53.2065 139.0835 0037519 118.4486   0.9868  2.00564034132939
GPS BIIR-5  (PRN 28)    
1 26407U 00040A   18182.51388337 -.00000065  00000-0  00000+0 0  9992
2 26407  56.4735 330.3355 0196776 272.8958  59.5272  2.00563153131628
GPS BIIR-6  (PRN 14)    
1 26605U 00071A   18182.35289681  .00000051  00000-0  00000+0 0  9994
2 26605  55.0609 209.7974 0102243 248.8594 232.1680  2.00572131129214
GPS BIIR-8  (PRN 16)    
1 27663U 03005A   18182.42009413 -.00000065  00000-0  00000+0 0  9996
2 27663  56.5377 330.0974 0098933  28.7894 355.7780  2.00566268112986
GPS BIIR-9  (PRN 21)    
1 27704U 03010A   18182.33608986 -.00000048  00000-0  00000+0 0  9999
2 27704  54.1055  82.5052 0245955 271.3937  11.7644  2.00562882111780
GPS BIIR-10 (PRN 22)    
1 28129U 03058A   18181.68097653  .00000012  00000-0  00000+0 0  9993
2 28129  53.0195 141.9567 0075488 272.9411  86.1565  2.00550984106469
GPS BIIR-11 (PRN 19)    
1 28190U 04009A   18182.14348140 -.00000075  00000-0  00000+0 0  9990
2 28190  56.1774  30.9522 0096603  69.4025 262.6446  2.00558991104658
GPS BIIR-12 (PRN 23)    
1 28361U 04023A   18182.40004985  .00000052  00000-0  00000+0 0  9995
2 28361  54.0620 204.5213 0127815 226.1909 208.0897  2.00551547102746
GPS BIIR-13 (PRN 02)    
1 28474U 04045A   18182.20653958 -.00000048  00000-0  00000+0 0  9998
2 28474  54.4735  82.1295 0181319 254.3665  39.6444  2.00552887100105
GPS BIIRM-1 (PRN 17)    
1 28874U 05038A   18182.14329545 -.00000075  00000-0  00000+0 0  9990
2 28874  56.3181  28.2641 0125812 258.3984  96.0876  2.00575278 93505
GPS BIIRM-2 (PRN 31)    
1 29486U 06042A   18182.32311168 -.00000007  00000-0  00000+0 0  9993
2 29486  55.1707 267.1031 0087838 351.2562  57.8674  2.00562069 86229
GPS BIIRM-3 (PRN 12)    
1 29601U 06052A   18182.19822199 -.00000066  00000-0  00000+0 0  9994
2 29601  56.5137 329.0229 0069695  56.2559 304.4010  2.00576698 85133
GPS BIIRM-4 (PRN 15)    
1 32260U 07047A   18181.52224951  .00000049  00000-0  00000+0 0  9992
2 32260  53.1866 200.5669 0101868  38.1189 322.6427  2.00552316 78506
GPS BIIRM-5 (PRN 29)    
1 32384U 07062A   18182.27397653 -.00000074  00000-0  00000+0 0  9998
2 32384  56.3924  28.8692 0006092  70.1361 247.9474  2.00564441 77244
GPS BIIRM-6 (PRN 07)    
1 32711U 08012A   18182.42938813 -.00000007  00000-0  00000+0 0  9990
2 32711  54.9048 266.3743 0119670 216.6138 142.6343  2.00565753 75433
GPS BIIRM-8 (PRN 05)    
1 35752U 09043A   18182.27254722  .00000023  00000-0  00000+0 0  9993
2 35752  54.3246 144.1405 0053172  33.7891 242.5525  2.00556357 65016
GPS BIIF-1  (PRN 25)    
1 36585U 10022A   18182.28760490 -.00000065  00000-0  00000+0 0  9999
2 36585  55.8040 325.5712 0073054  48.6359 341.8789  2.00569493 59260
GPS BIIF-2  (PRN 01)    
1 37753U 11036A   18182.54288066 -.00000042  00000-0  00000+0 0  9991
2 37753  55.6731  85.6599 0078044  35.9982 265.2790  2.00564504 50951
GPS BIIF-3  (PRN 24)    
1 38833U 12053A   18182.11145044 -.00000004  00000-0  00000+0 0  9990
2 38833  53.9351 262.9304 0068611  29.3068 331.1510  2.00567120 42013
GPS BIIF-4  (PRN 27)    
1 39166U 13023A   18182.46819163 -.00000075  00000-0  00000+0 0  9994
2 39166  56.0150  25.1429 0059068  23.4169 336.8999  2.00562655 37558
GPS BIIF-5  (PRN 30)    
1 39533U 14008A   18181.96941256 -.00000010  00000-0  00000+0 0  9998
2 39533  54.0793 268.2881 0035654 189.4248 170.5760  2.00557881 31902
GPS BIIF-6  (PRN 06)    
1 39741U 14026A   18182.24761433 -.00000043  00000-0  00000+0 0  9994
2 39741  55.6563  85.1945 0012975 294.8664  65.0349  2.00566286 30196
GPS BIIF-7  (PRN 09)    
1 40105U 14045A   18182.33920599  .00000052  00000-0  00000+0 0  9990
2 40105  54.5879 204.6361 0006763 111.5726 248.5495  2.00572666 28648
GPS BIIF-8  (PRN 03)    
1 40294U 14068A   18182.21208465  .00000025  00000-0  00000+0 0  9992
2 40294  55.0757 145.4208 0014058  18.3075 341.7062  2.00557097 26866
GPS BIIF-9  (PRN 26)    
1 40534U 15013A   18182.34690042 -.00000066  00000-0  00000+0 0  9996
2 40534  54.7445 324.2754 0027684   2.1666 357.8424  2.00563027 23937
GPS BIIF-10  (PRN 08)   
1 40730U 15033A   18182.01176117 -.00000078  00000-0  00000+0 0  9995
2 40730  55.5450  24.6607 0035569 333.2894  26.5755  2.00573996 21683
GPS BIIF-11  (PRN 10)   
1 41019U 15062A   18181.56300332  .00000018  00000-0  00000+0 0  9998
2 41019  55.0804 145.2498 0036998 205.7636 154.0140  2.00564468 19499
GPS BIIF-12  (PRN 32)   
1 41328U 16007A   18182.14926365  .00000052  00000-0  00000+0 0  9994
2 41328  54.8382 204.9377 0023807 219.4771 140.4005  2.00562756 17569
